{
"type": "FeatureCollection",
"name": "buffered",
"crs": { "type": "name", "properties": { "name": "urn:ogc:def:crs:OGC:1.3:CRS84" } },
"features": [
{ "type": "Feature", "properties": { "name": "test point" }, "geometry": { "type": "Polygon", "coordinates": [ [ [ -122.413722672707493, 37.77487188970273 ], [ -122.413753498482023, 37.774430322598135 ], [ -122.413838702073051, 37.773993279970703 ], [ -122.413977461999224, 37.773564970656949 ], [ -122.414168441079482, 37.773149519318657 ], [ -122.414409799343332, 37.772750926727689 ], [ -122.414699211779165, 37.772373031245834 ], [ -122.415033890748333, 37.772019471871083 ], [ -122.415410612848547, 37.771693653205098 ], [ -122.415825749967055, 37.771398712679314 ], [ -122.416275304223973, 37.771137490354278 ], [ -122.416754946469752, 37.770912501582913 ], [ -122.417260057965379, 37.770725912800089 ], [ -122.417785774845171, 37.770579520671397 ], [ -122.41832703493391, 37.770474734801212 ], [ -122.418878626469109, 37.770412564166456 ], [ -122.419435238259652, 37.770393607405929 ], [ -122.419991510799591, 37.770418047058932 ], [ -122.420542087845746, 37.770485647808265 ], [ -122.421081667964259, 37.770595758744562 ], [ -122.421605055550728, 37.770747319630068 ], [ -122.422107210834241, 37.770938871102182 ], [ -122.422583298384737, 37.771168568718068 ], [ -122.423028733657816, 37.771434200706089 ], [ -122.423439227129521, 37.771733209253313 ], [ -122.423810825596775, 37.772062715124385 ], [ -122.42413995024603, 37.772419545375591 ], [ -122.424423431123685, 37.772800263897537 ], [ -122.424658537676194, 37.773201204492814 ], [ -122.424843005065028, 37.773618506170877 ], [ -122.424975056002694, 37.774048150320425 ], [ -122.425053417898468, 37.774485999401932 ], [ -122.425077335147378, 37.77492783678796 ], [ -122.425046576443123, 37.775369407367712 ], [ -122.424961437043038, 37.775806458525224 ], [ -122.424822735961655, 37.7762347810962 ], [ -122.424631808118647, 37.776650249909359 ], [ -122.42439049151551, 37.777048863521301 ], [ -122.424101109562883, 37.777426782762412 ], [ -122.423766448727889, 37.777780367721647 ], [ -122.423389731715957, 37.778106212814137 ], [ -122.422974586444326, 37.778401179592912 ], [ -122.422525011106188, 37.778662426988504 ], [ -122.422045335661224, 37.778887438684578 ], [ -122.421540180124282, 37.779074047365256 ], [ -122.421014410053502, 37.779220455600303 ], [ -122.420473089668235, 37.779325253166363 ], [ -122.419921433048103, 37.779387430637072 ], [ -122.419364753885418, 37.77940638911091 ], [ -122.418808414275205, 37.779381945982756 ], [ -122.418257773038093, 37.779314336703315 ], [ -122.417718134074804, 37.779204212509825 ], [ -122.417194695251055, 37.77905263414943 ], [ -122.41669249830683, 37.778861061656357 ], [ -122.41621638027317, 37.77863134028123 ], [ -122.415770926865903, 37.778365682708717 ], [ -122.415360428305902, 37.778066647734995 ], [ -122.414988837991785, 37.777737115610933 ], [ -122.414659734423765, 37.777380260289156 ], [ -122.414376286745295, 37.776999518842509 ], [ -122.414141224234129, 37.776598558349363 ], [ -122.413956810036268, 37.776181240564952 ], [ -122.413824819395103, 37.775751584719522 ], [ -122.413746522584262, 37.775313728802061 ], [ -122.413722672707493, 37.77487188970273 ] ] ] } }
]
}
